NORAD_CAT_ID,OBJECT_NAME,OBJECT_TYPE,EPOCH,MEAN_MOTION,ECCENTRICITY,INCLINATION,RA_OF_ASC_NODE,ARG_OF_PERICENTER,MEAN_ANOMALY,BSTAR,MEAN_MOTION_DOT,MEAN_MOTION_DDOT,TLE_LINE0,TLE_LINE1,TLE_LINE2,SEMIMAJOR_AXIS,PERIOD,APOGEE,PERIGEE,DECAYED
52283.0,STARLINK-3789,PAYLOAD,2023-10-04 07:29:24,15.08842376,0.0001413,53.2159,132.712,93.3793,266.7361,0.00026966,4.007e-05,0.0,0 STARLINK-3789,1 52283U 22041Y   23277.31208974  .00004007  00000-0  26966-3 0  9997,2 52283  53.2159 132.7120 0001413  93.3793 266.7361 15.08842376 80403,6917.873,95.437,540.716,538.761,0.0
52283.0,STARLINK-3789,PAYLOAD,2023-10-04 21:47:52,15.08857319,0.000135,53.2159,130.0353,89.7378,270.3769,0.00046745,7.163e-05,0.0,0 STARLINK-3789,1 52283U 22041Y   23277.90824325  .00007163  00000-0  46745-3 0  9999,2 52283  53.2159 130.0353 0001350  89.7378 270.3769 15.08857319 80495,6917.827,95.436,540.626,538.759,0.0
52283.0,STARLINK-3789,PAYLOAD,2023-10-05 07:20:11,15.08847313,0.0001358,53.2163,128.2534,82.6326,277.4821,0.0001193,1.612e-05,0.0,0 STARLINK-3789,1 52283U 22041Y   23278.30568413  .00001612  00000-0  11930-3 0  9998,2 52283  53.2163 128.2534 0001358  82.6326 277.4821 15.08847313 81775,6917.858,95.437,540.662,538.784,0.0
52283.0,STARLINK-3789,PAYLOAD,2023-10-05 20:03:16,15.08838534,0.0001279,53.2147,125.8737,85.5023,274.6115,-1.513e-05,-5.29e-06,0.0,0 STARLINK-3789,1 52283U 22041Y   23278.83560636 -.00000529  00000-0 -15130-4 0  9990,2 52283  53.2147 125.8737 0001279  85.5023 274.6115 15.08838534 81852,6917.885,95.438,540.635,538.865,0.0
52283.0,STARLINK-3789,PAYLOAD,2023-10-05 21:38:39,15.0884116,0.0001416,53.2152,125.577,85.3899,274.7255,3.6242e-05,2.89e-06,0.0,0 STARLINK-3789,1 52283U 22041Y   23278.90184674  .00000289  00000-0  36242-4 0  9990,2 52283  53.2152 125.5770 0001416  85.3899 274.7255 15.08841160 80645,6917.877,95.437,540.721,538.762,0.0
52283.0,STARLINK-3789,PAYLOAD,2023-10-06 07:10:58,15.08836982,0.000125,53.2156,123.7912,87.546,272.5675,2.8507e-06,-2.42e-06,0.0,0 STARLINK-3789,1 52283U 22041Y   23279.29928819 -.00000242  00000-0  28507-5 0  9996,2 52283  53.2156 123.7912 0001250  87.5460 272.5675 15.08836982 80706,6917.89,95.438,540.619,538.89,0.0
52283.0,STARLINK-3789,PAYLOAD,2023-10-06 19:54:03,15.08837539,0.0001444,53.2162,121.4131,88.4247,271.691,2.8479e-05,1.65e-06,0.0,0 STARLINK-3789,1 52283U 22041Y   23279.82921238  .00000165  00000-0  28479-4 0  9993,2 52283  53.2162 121.4131 0001444  88.4247 271.6910 15.08837539 80788,6917.888,95.438,540.752,538.754,0.0
52283.0,STARLINK-3789,PAYLOAD,2023-10-06 23:04:50,15.08842129,0.0001533,53.2167,120.8188,87.3872,272.7296,0.00015367,2.159e-05,0.0,0 STARLINK-3789,1 52283U 22041Y   23279.96169152  .00002159  00000-0  15367-3 0  9993,2 52283  53.2167 120.8188 0001533  87.3872 272.7296 15.08842129 82028,6917.874,95.437,540.799,538.678,0.0
52283.0,STARLINK-3789,PAYLOAD,2023-10-07 13:23:18,15.08841959,0.0001562,53.2163,118.1432,83.7103,276.4067,0.00032222,4.844e-05,0.0,0 STARLINK-3789,1 52283U 22041Y   23280.55785452  .00004844  00000-0  32222-3 0  9999,2 52283  53.2163 118.1432 0001562  83.7103 276.4067 15.08841959 80895,6917.874,95.437,540.82,538.659,0.0
52283.0,STARLINK-3789,PAYLOAD,2023-10-07 19:44:51,15.08846979,0.0001557,53.216,116.9534,85.008,275.109,0.00038362,5.824e-05,0.0,0 STARLINK-3789,1 52283U 22041Y   23280.82281297  .00005824  00000-0  38362-3 0  9997,2 52283  53.2160 116.9534 0001557  85.0080 275.1090 15.08846979 80938,6917.859,95.437,540.801,538.647,0.0
52283.0,STARLINK-3789,PAYLOAD,2023-10-08 19:35:38,15.08845052,0.0001375,53.2149,112.4922,85.2024,274.9125,0.00030477,4.566e-05,0.0,0 STARLINK-3789,1 52283U 22041Y   23281.81641275  .00004566  00000-0  30477-3 0  9994,2 52283  53.2149 112.4922 0001375  85.2024 274.9125 15.08845052 82305,6917.865,95.437,540.681,538.779,0.0
52283.0,STARLINK-3789,PAYLOAD,2023-10-09 13:04:52,15.08841251,0.0001405,53.2148,109.2206,84.8746,275.2407,2.0838e-05,4.4e-07,0.0,0 STARLINK-3789,1 52283U 22041Y   23282.54505245  .00000044  00000-0  20838-4 0  9999,2 52283  53.2148 109.2206 0001405  84.8746 275.2407 15.08841251 81193,6917.877,95.437,540.714,538.77,0.0
52283.0,STARLINK-3789,PAYLOAD,2023-10-09 17:51:01,15.08845044,0.0001335,53.2155,108.3279,87.374,272.7405,7.5652e-05,9.16e-06,0.0,0 STARLINK-3789,1 52283U 22041Y   23282.74377060  .00000916  00000-0  75652-4 0  9995,2 52283  53.2155 108.3279 0001335  87.3740 272.7405 15.08845044 82448,6917.865,95.437,540.654,538.806,0.0
52283.0,STARLINK-3789,PAYLOAD,2023-10-09 19:26:24,15.08847409,0.0001364,53.2157,108.0301,89.6329,270.482,0.00010775,1.428e-05,0.0,0 STARLINK-3789,1 52283U 22041Y   23282.81000921  .00001428  00000-0  10775-3 0  9995,2 52283  53.2157 108.0301 0001364  89.6329 270.4820 15.08847409 81232,6917.858,95.437,540.666,538.779,0.0
52283.0,STARLINK-3789,PAYLOAD,2023-10-10 12:55:39,15.08840195,0.0001234,53.2153,104.7601,88.4888,271.6246,4.8721e-05,4.88e-06,0.0,0 STARLINK-3789,1 52283U 22041Y   23283.53865155  .00000488  00000-0  48721-4 0  9991,2 52283  53.2153 104.7601 0001234  88.4888 271.6246 15.08840195 81349,6917.88,95.438,540.598,538.891,0.0
52283.0,STARLINK-3789,PAYLOAD,2023-10-10 19:17:11,15.08847931,0.0001279,53.2153,103.571,87.5257,272.5881,0.00014809,2.07e-05,0.0,0 STARLINK-3789,1 52283U 22041Y   23283.80360723  .00002070  00000-0  14809-3 0  9990,2 52283  53.2153 103.5710 0001279  87.5257 272.5881 15.08847931 82606,6917.856,95.437,540.606,538.836,0.0
52283.0,STARLINK-3789,PAYLOAD,2023-10-10 20:52:34,15.08849209,0.0001295,53.2155,103.2733,86.8375,273.2765,0.00016642,2.362e-05,0.0,0 STARLINK-3789,1 52283U 22041Y   23283.86984638  .00002362  00000-0  16642-3 0  9994,2 52283  53.2155 103.2733 0001295  86.8375 273.2765 15.08849209 81395,6917.852,95.437,540.613,538.821,0.0
52283.0,STARLINK-3789,PAYLOAD,2023-10-11 12:46:26,15.08840237,0.0001709,53.2172,100.2997,80.3243,279.7942,9.3645e-06,-1.39e-06,0.0,0 STARLINK-3789,1 52283U 22041Y   23284.53225186 -.00000139  00000-0  93645-5 0  9996,2 52283  53.2172 100.2997 0001709  80.3243 279.7942 15.08840237 81497,6917.88,95.438,540.927,538.562,0.0
52283.0,STARLINK-3789,PAYLOAD,2023-10-11 19:07:59,15.08836063,0.0001592,53.218,99.1112,92.0476,268.0699,-3.688e-05,-8.75e-06,0.0,0 STARLINK-3789,1 52283U 22041Y   23284.79721451 -.00000875  00000-0 -36880-4 0  9995,2 52283  53.2180  99.1112 0001592  92.0476 268.0699 15.08836063 82751,6917.892,95.438,540.859,538.656,0.0
52283.0,STARLINK-3789,PAYLOAD,2023-10-12 12:37:13,15.08843272,0.0001416,53.217,95.8389,89.4575,270.6579,0.00011085,1.477e-05,0.0,0 STARLINK-3789,1 52283U 22041Y   23285.52585336  .00001477  00000-0  11085-3 0  9993,2 52283  53.2170  95.8389 0001416  89.4575 270.6579 15.08843272 81647,6917.87,95.437,540.715,538.756,0.0
52283.0,STARLINK-3789,PAYLOAD,2023-10-12 18:58:46,15.08840364,0.0001408,53.2164,94.6496,87.976,272.1393,0.0001454,2.027e-05,0.0,0 STARLINK-3789,1 52283U 22041Y   23285.79081536  .00002027  00000-0  14540-3 0  9996,2 52283  53.2164  94.6496 0001408  87.9760 272.1393 15.08840364 81680,6917.879,95.438,540.718,538.77,0.0
52283.0,STARLINK-3789,PAYLOAD,2023-10-13 04:31:05,15.08837853,0.0001414,53.2162,92.8649,83.2684,276.8469,0.0001312,1.801e-05,0.0,0 STARLINK-3789,1 52283U 22041Y   23286.18825814  .00001801  00000-0  13120-3 0  9997,2 52283  53.2162  92.8649 0001414  83.2684 276.8469 15.08837853 82965,6917.887,95.438,540.73,538.774,0.0
52283.0,STARLINK-3789,PAYLOAD,2023-10-13 10:52:38,15.08837463,0.0001516,53.217,91.6759,81.3793,278.737,0.00011231,1.5e-05,0.0,0 STARLINK-3789,1 52283U 22041Y   23286.45321976  .00001500  00000-0  11231-3 0  9994,2 52283  53.2170  91.6759 0001516  81.3793 278.7370 15.08837463 81784,6917.888,95.438,540.802,538.704,0.0
52283.0,STARLINK-3789,PAYLOAD,2023-10-13 18:49:33,15.08848105,0.0001399,53.2159,90.1881,83.4607,276.6544,0.00035988,5.445e-05,0.0,0 STARLINK-3789,1 52283U 22041Y   23286.78441669  .00005445  00000-0  35988-3 0  9999,2 52283  53.2159  90.1881 0001399  83.4607 276.6544 15.08848105 81838,6917.856,95.437,540.688,538.753,0.0
52283.0,STARLINK-3789,PAYLOAD,2023-10-14 04:21:52,15.0884794,0.0001419,53.2156,88.4045,82.2291,277.8862,0.0003556,5.377e-05,0.0,0 STARLINK-3789,1 52283U 22041Y   23287.18185657  .00005377  00000-0  35560-3 0  9996,2 52283  53.2156  88.4045 0001419  82.2291 277.8862 15.08847940 81894,6917.856,95.437,540.703,538.739,0.0
52283.0,STARLINK-3789,PAYLOAD,2023-10-14 20:15:43,15.08851911,0.0001436,53.2159,85.4295,90.0533,270.0624,0.00032905,4.954e-05,0.0,0 STARLINK-3789,1 52283U 22041Y   23287.84425327  .00004954  00000-0  32905-3 0  9990,2 52283  53.2159  85.4295 0001436  90.0533 270.0624 15.08851911 83218,6917.844,95.437,540.702,538.716,0.0
52283.0,STARLINK-3789,PAYLOAD,2023-10-15 10:34:12,15.08840011,0.0001357,53.2158,82.7548,80.7864,279.3281,7.1588e-05,8.52e-06,0.0,0 STARLINK-3789,1 52283U 22041Y   23288.44041794  .00000852  00000-0  71588-4 0  9993,2 52283  53.2158  82.7548 0001357  80.7864 279.3281 15.08840011 83303,6917.88,95.438,540.684,538.807,0.0
52283.0,STARLINK-3789,PAYLOAD,2023-10-15 13:44:58,15.0884002,0.0001402,53.216,82.16,85.4257,274.6895,6.1296e-05,6.88e-06,0.0,0 STARLINK-3789,1 52283U 22041Y   23288.57289778  .00000688  00000-0  61296-4 0  9995,2 52283  53.2160  82.1600 0001402  85.4257 274.6895 15.08840020 82104,6917.88,95.438,540.715,538.775,0.0
52283.0,STARLINK-3789,PAYLOAD,2023-10-15 16:55:44,15.08841985,0.0001386,53.2162,81.5649,90.0747,270.0404,9.1942e-05,1.176e-05,0.0,0 STARLINK-3789,1 52283U 22041Y   23288.70537678  .00001176  00000-0  91942-4 0  9999,2 52283  53.2162  81.5649 0001386  90.0747 270.0404 15.08841985 82128,6917.874,95.437,540.698,538.781,0.0
52283.0,STARLINK-3789,PAYLOAD,2023-10-16 10:24:59,15.08830695,0.0001378,53.2166,78.2934,95.4128,264.7021,-5.3519e-05,-1.139e-05,0.0,0 STARLINK-3789,1 52283U 22041Y   23289.43402374 -.00001139  00000-0 -53519-4 0  9993,2 52283  53.2166  78.2934 0001378  95.4128 264.7021 15.08830695 83453,6917.909,95.438,540.727,538.821,0.0
